     3.01           N: GNSS NAV DATA    R: GLONASS          RINEX VERSION / TYPE
JPS2RIN v.2.0.99    JAVAD GNSS          20150707 012046 UTC PGM / RUN BY / DATE
GLUT -1.8626451492D-09 0.000000000D+00      0 1852          TIME SYSTEM CORR
    17                                                      LEAP SECONDS
                                                            END OF HEADER
R20 2015 07 06 19 45 00-1.830058172345D-04-1.818989403546D-12 1.566000000000D+05
    -1.542219140625D+04-1.872484207153D+00 9.313225746155D-10 0.000000000000D+00
    -3.690746093750D+03-1.999453544617D+00 1.862645149231D-09 2.000000000000D+00
    -1.995609375000D+04 1.821474075317D+00 2.793967723846D-09 0.000000000000D+00
R21 2015 07 06 19 45 00 1.930445432663D-05 1.818989403546D-12 1.566000000000D+05
    -4.662660644531D+03-2.046233177185D+00 0.000000000000D+00 0.000000000000D+00
     1.070143505859D+04-2.337506294250D+00 2.793967723846D-09 4.000000000000D+00
    -2.267834082031D+04-6.844635009766D-01 1.862645149231D-09 0.000000000000D+00
R22 2015 07 06 19 45 00 1.681447029114D-04 1.818989403546D-12 1.566000000000D+05
     9.631176269531D+03-1.060080528259D+00-1.862645149231D-09 0.000000000000D+00
     1.978642578125D+04-1.438681602478D+00 1.862645149231D-09-3.000000000000D+00
    -1.302095312500D+04-2.957115173340D+00 0.000000000000D+00 0.000000000000D+00
R05 2015 07 06 20 15 00 8.041039109230D-06 0.000000000000D+00 1.584000000000D+05
    -1.409235205078D+04 2.660243034363D+00 9.313225746155D-10 0.000000000000D+00
    -5.394179687500D+03-9.220504760742D-01 9.313225746155D-10 1.000000000000D+00
    -2.056745605469D+04-1.580641746521D+00 2.793967723846D-09 0.000000000000D+00
R06 2015 07 06 20 15 00 7.075164467096D-05 0.000000000000D+00 1.584000000000D+05
    -2.400677880859D+04 8.866415023804D-01 0.000000000000D+00 0.000000000000D+00
     5.521701660156D+03-1.917018890381D-01 2.793967723846D-09-4.000000000000D+00
    -6.559832031250D+03-3.411759376526D+00 9.313225746155D-10 0.000000000000D+00
R07 2015 07 06 20 15 00-1.240530982614D-04 0.000000000000D+00 1.584000000000D+05
    -1.957944287109D+04-1.310606956482D+00 0.000000000000D+00 0.000000000000D+00
     1.246468115234D+04 6.225252151489D-01 2.793967723846D-09 5.000000000000D+00
     1.059025781250D+04-3.169704437256D+00-1.862645149231D-09 0.000000000000D+00
R10 2015 07 06 20 15 00 1.965183764696D-05 9.094947017729D-13 1.584000000000D+05
    -9.628217285156D+03 5.265245437622D-01-9.313225746155D-10 0.000000000000D+00
     1.978524902344D+04-1.709664344788D+00 2.793967723846D-09-7.000000000000D+00
     1.295169433594D+04 2.990101814270D+00-2.793967723846D-09 0.000000000000D+00
R11 2015 07 06 20 15 00 1.011323183775D-05 0.000000000000D+00 1.584000000000D+05
    -2.354323242188D+03 9.579086303711D-02-1.862645149231D-09 0.000000000000D+00
     2.496578564453D+04 6.375494003296D-01 3.725290298462D-09 0.000000000000D+00
    -4.456011230469D+03 3.533145904541D+00 0.000000000000D+00 0.000000000000D+00
R12 2015 07 06 20 15 00 1.119915395975D-05 1.818989403546D-12 1.584000000000D+05
     6.373666015625D+03-3.645820617676D-01-9.313225746155D-10 0.000000000000D+00
     1.542146240234D+04 2.619223594666D+00 1.862645149231D-09-1.000000000000D+00
    -1.938920849609D+04 1.951397895813D+00 9.313225746155D-10 0.000000000000D+00
R20 2015 07 06 20 15 00-1.830095425248D-04-1.818989403546D-12 1.584000000000D+05
    -1.871213574219D+04-1.735448837280D+00 9.313225746155D-10 0.000000000000D+00
    -6.706864746094D+03-1.340765953064D+00 9.313225746155D-10 2.000000000000D+00
    -1.594661376953D+04 2.604605674744D+00 1.862645149231D-09 0.000000000000D+00
R21 2015 07 06 20 15 00 1.930724829435D-05 1.818989403546D-12 1.584000000000D+05
    -8.699020019531D+03-2.402912139893D+00 0.000000000000D+00 0.000000000000D+00
     6.726999511719D+03-2.040517807007D+00 2.793967723846D-09 4.000000000000D+00
    -2.301785449219D+04 3.096046447754D-01 2.793967723846D-09 0.000000000000D+00
R22 2015 07 06 20 15 00 1.681484282017D-04 1.818989403546D-12 1.584000000000D+05
     7.091520996094D+03-1.758389472961D+00-9.313225746155D-10 0.000000000000D+00
     1.693581738281D+04-1.682326316833D+00 2.793967723846D-09-3.000000000000D+00
    -1.777538818359D+04-2.291333198547D+00 9.313225746155D-10 0.000000000000D+00
R23 2015 07 06 20 15 00-1.096166670322D-05-2.728484105319D-12 1.589400000000D+05
     1.894926318359D+04-1.006603240967D-02-1.862645149231D-09 0.000000000000D+00
     1.702768652344D+04-2.659311294556D-01 9.313225746155D-10 3.000000000000D+00
    -1.326330566406D+03-3.579486846924D+00 0.000000000000D+00 0.000000000000D+00
R05 2015 07 06 20 45 00 8.041039109230D-06 0.000000000000D+00 1.602000000000D+05
    -9.184557128906D+03 2.743284225464D+00 9.313225746155D-10 0.000000000000D+00
    -7.512379882813D+03-1.423249244690D+00 0.000000000000D+00 1.000000000000D+00
    -2.258095019531D+04-6.420536041260D-01 2.793967723846D-09 0.000000000000D+00
R06 2015 07 06 20 45 00 7.075257599354D-05 0.000000000000D+00 1.602000000000D+05
    -2.178306396484D+04 1.549599647522D+00 9.313225746155D-10 0.000000000000D+00
     4.748826660156D+03-6.917743682861D-01 1.862645149231D-09-4.000000000000D+00
    -1.236743261719D+04-2.999183654785D+00 1.862645149231D-09 0.000000000000D+00
R07 2015 07 06 20 45 00-1.240540295839D-04 0.000000000000D+00 1.602000000000D+05
    -2.118928125000D+04-4.777364730835D-01 0.000000000000D+00 0.000000000000D+00
     1.344110595703D+04 4.202232360840D-01 3.725290298462D-09 5.000000000000D+00
     4.549093750000D+03-3.499173164368D+00 0.000000000000D+00 0.000000000000D+00
R08 2015 07 06 20 45 00-2.672336995602D-05 0.000000000000D+00 1.617000000000D+05
    -8.680678710938D+03-2.253746032715D+00 0.000000000000D+00 0.000000000000D+00
     1.472158544922D+04 1.273797035217D+00 1.862645149231D-09 6.000000000000D+00
     1.899897851563D+04-2.021741867065D+00-2.793967723846D-09 0.000000000000D+00
R10 2015 07 06 20 45 00 1.965463161469D-05 9.094947017729D-13 1.602000000000D+05
    -8.862471679688D+03 2.886590957642D-01 0.000000000000D+00 0.000000000000D+00
     1.603496679688D+04-2.426030158997D+00 1.862645149231D-09-7.000000000000D+00
     1.776495703125D+04 2.323160171509D+00-2.793967723846D-09 0.000000000000D+00
R11 2015 07 06 20 45 00 1.011323183775D-05 0.000000000000D+00 1.602000000000D+05
    -2.032321289063D+03 2.205448150635D-01-9.313225746155D-10 0.000000000000D+00
     2.530754003906D+04-2.652807235718D-01 4.656612873077D-09 0.000000000000D+00
     1.994179687500D+03 3.586968421936D+00-9.313225746155D-10 0.000000000000D+00
R12 2015 07 06 20 45 00 1.120381057262D-05 1.818989403546D-12 1.602000000000D+05
     6.111787109375D+03 5.107116699219D-02-9.313225746155D-10 0.000000000000D+00
     1.968036914063D+04 2.071185112000D+00 3.725290298462D-09-1.000000000000D+00
    -1.517890429688D+04 2.696445465088D+00 9.313225746155D-10 0.000000000000D+00
R13 2015 07 06 20 45 00-4.910510033369D-04-9.094947017729D-13 1.610400000000D+05
     1.054772363281D+04-1.264438629150D-01 0.000000000000D+00 0.000000000000D+00
     1.782391601563D+03 3.167839050293D+00 0.000000000000D+00-2.000000000000D+00
    -2.317892138672D+04 1.852912902832D-01 1.862645149231D-09 0.000000000000D+00
R20 2015 07 06 20 45 00-1.830132678151D-04-1.818989403546D-12 1.602000000000D+05
    -2.150015869141D+04-1.317253112793D+00 1.862645149231D-09 0.000000000000D+00
    -8.512493652344D+03-6.736211776733D-01 0.000000000000D+00 2.000000000000D+00
    -1.070072167969D+04 3.186248779297D+00 1.862645149231D-09 0.000000000000D+00
R21 2015 07 06 20 45 00 1.931004226208D-05 1.818989403546D-12 1.602000000000D+05
    -1.316339013672D+04-2.511289596558D+00 9.313225746155D-10 0.000000000000D+00
     3.467214843750D+03-1.558386802673D+00 1.862645149231D-09 4.000000000000D+00
    -2.157838818359D+04 1.279364585876D+00 2.793967723846D-09 0.000000000000D+00
R22 2015 07 06 20 45 00 1.681512221694D-04 9.094947017729D-13 1.602000000000D+05
     3.347442382813D+03-2.379513740540D+00 0.000000000000D+00 0.000000000000D+00
     1.389546875000D+04-1.651809692383D+00 2.793967723846D-09-3.000000000000D+00
    -2.116295361328D+04-1.448018074036D+00 1.862645149231D-09 0.000000000000D+00
R23 2015 07 06 20 45 00-1.096818596125D-05-2.728484105319D-12 1.602000000000D+05
     1.825732470703D+04-7.749643325806D-01-1.862645149231D-09 0.000000000000D+00
     1.610123583984D+04-7.246475219727D-01 1.862645149231D-09 3.000000000000D+00
    -7.634914062500D+03-3.384552001953D+00 0.000000000000D+00 0.000000000000D+00
R05 2015 07 06 21 15 00 8.041970431805D-06 0.000000000000D+00 7.560000000000D+04
    -4.388485351563D+03 2.541213035583D+00 9.313225746155D-10 0.000000000000D+00
    -1.045641357422D+04-1.822484970093D+00-9.313225746155D-10 1.000000000000D+00
    -2.284899121094D+04 3.461694717407D-01 2.793967723846D-09 0.000000000000D+00
R06 2015 07 06 21 15 00 7.075350731611D-05 0.000000000000D+00 7.560000000000D+04
    -1.857304199219D+04 1.972538948059D+00 9.313225746155D-10 0.000000000000D+00
     2.970133300781D+03-1.293084144592D+00 9.313225746155D-10-4.000000000000D+00
    -1.721734472656D+04-2.354635238647D+00 1.862645149231D-09 0.000000000000D+00
R07 2015 07 06 21 15 00-1.240558922291D-04 0.000000000000D+00 7.560000000000D+04
    -2.133242968750D+04 3.003082275391D-01 9.313225746155D-10 0.000000000000D+00
     1.383326074219D+04-2.097225189209D-02 2.793967723846D-09 5.000000000000D+00
    -1.844012695313D+03-3.558094024658D+00 0.000000000000D+00 0.000000000000D+00
R08 2015 07 06 21 15 00-2.672243863344D-05 0.000000000000D+00 7.560000000000D+04
    -1.213462304688D+04-1.565792083740D+00 0.000000000000D+00 0.000000000000D+00
     1.702881152344D+04 1.246582984924D+00 2.793967723846D-09 6.000000000000D+00
     1.467594775391D+04-2.750725746155D+00-1.862645149231D-09 0.000000000000D+00
